{
    "links": {
        "self": "http://www.neowsapp.com/rest/v1/neo/3704152?api_key=iIulBulltgU6a56xZRHN4H3l9WmuAYTsLGpBGhQ2"
    },
    "id": "3704152",
    "neo_reference_id": "3704152",
    "name": "(2015 BD4)",
    "designation": "2015 BD4",
    "nasa_jpl_url": "http://ssd.jpl.nasa.gov/sbdb.cgi?sstr=3704152",
    "absolute_magnitude_h": 25.1,
    "estimated_diameter": {
        "kilometers": {
            "estimated_diameter_min": 0.0253837029,
            "estimated_diameter_max": 0.0567596853
        },
        "meters": {
            "estimated_diameter_min": 25.3837029364,
            "estimated_diameter_max": 56.7596852866
        },
        "miles": {
            "estimated_diameter_min": 0.0157726969,
            "estimated_diameter_max": 0.0352688224
        },
        "feet": {
            "estimated_diameter_min": 83.279867942,
            "estimated_diameter_max": 186.2194458756
        }
    },
    "is_potentially_hazardous_asteroid": false,
    "close_approach_data": [
        {
            "close_approach_date": "2015-01-07",
            "close_approach_date_full": "2015-Jan-07 05:29",
            "epoch_date_close_approach": 1420608540000,
            "relative_velocity": {
                "kilometers_per_second": "10.0902413101",
                "kilometers_per_hour": "36324.8687165148",
                "miles_per_hour": "22570.8607866589"
            },
            "miss_distance": {
                "astronomical": "0.0331955665",
                "lunar": "12.9130753685",
                "kilometers": "4965986.041843355",
                "miles": "3085720.639634099"
            },
            "orbiting_body": "Earth"
        },
        {
            "close_approach_date": "2114-11-01",
            "close_approach_date_full": "2114-Nov-01 10:05",
            "epoch_date_close_approach": 4570509900000,
            "relative_velocity": {
                "kilometers_per_second": "6.2557109473",
                "kilometers_per_hour": "22520.5594102535",
                "miles_per_hour": "13993.3998179989"
            },
            "miss_distance": {
                "astronomical": "1.5192427832",
                "lunar": "590.9854426648",
                "kilometers": "227275484.379591784",
                "miles": "141222437.4220392592"
            },
            "orbiting_body": "Juptr"
        },
        {
            "close_approach_date": "2162-02-02",
            "close_approach_date_full": "2162-Feb-02 12:52",
            "epoch_date_close_approach": 6061783920000,
            "relative_velocity": {
                "kilometers_per_second": "4.5004440968",
                "kilometers_per_hour": "16201.5987483558",
                "miles_per_hour": "10067.0434000548"
            },
            "miss_distance": {
                "astronomical": "1.0542839362",
                "lunar": "410.1164511818",
                "kilometers": "157718631.230735894",
                "miles": "98001813.0423235772"
            },
            "orbiting_body": "Juptr"
        },
        {
            "close_approach_date": "2164-02-09",
            "close_approach_date_full": "2164-Feb-09 03:02",
            "epoch_date_close_approach": 6125425320000,
            "relative_velocity": {
                "kilometers_per_second": "18.3917655939",
                "kilometers_per_hour": "66210.3561379734",
                "miles_per_hour": "41140.5404569535"
            },
            "miss_distance": {
                "astronomical": "0.270878031",
                "lunar": "105.371554059",
                "kilometers": "40522776.46739397",
                "miles": "25179685.699297986"
            },
            "orbiting_body": "Earth"
        },
        {
            "close_approach_date": "2174-04-07",
            "close_approach_date_full": "2174-Apr-07 23:36",
            "epoch_date_close_approach": 6446043360000,
            "relative_velocity": {
                "kilometers_per_second": "7.7349157027",
                "kilometers_per_hour": "27845.696529822",
                "miles_per_hour": "17302.232935433"
            },
            "miss_distance": {
                "astronomical": "1.8874684883",
                "lunar": "734.2252419487",
                "kilometers": "282361265.541799921",
                "miles": "175451154.6295280698"
            },
            "orbiting_body": "Juptr"
        }
    ],
    "orbital_data": {
        "orbit_id": "7",
        "orbit_determination_date": "2017-04-06 08:36:15",
        "first_observation_date": "2015-01-17",
        "last_observation_date": "2015-02-25",
        "data_arc_in_days": 39,
        "observations_used": 19,
        "orbit_uncertainty": "7",
        "minimum_orbit_intersection": ".0337643",
        "jupiter_tisserand_invariant": "3.076",
        "epoch_osculation": "2459000.5",
        "eccentricity": ".6290407896437304",
        "semi_major_axis": "2.62665279186708",
        "inclination": "7.516682798466381",
        "ascending_node_longitude": "117.8171600264972",
        "orbital_period": "1554.899879545457",
        "perihelion_distance": ".9743810455511028",
        "perihelion_argument": "325.6403018139825",
        "aphelion_distance": "4.278924538183057",
        "perihelion_time": "2458565.828842205682",
        "mean_anomaly": "100.6377445033302",
        "mean_motion": ".2315261610961335",
        "equinox": "J2000",
        "orbit_class": {
            "orbit_class_type": "APO",
            "orbit_class_description": "Near-Earth asteroid orbits which cross the Earth’s orbit similar to that of 1862 Apollo",
            "orbit_class_range": "a (semi-major axis) > 1.0 AU; q (perihelion) < 1.017 AU"
        }
    },
    "is_sentry_object": false
}